{
"type": "FeatureCollection",
"name": "a",
"crs": { "type": "name", "properties": { "name": "urn:ogc:def:crs:OGC:1.3:CRS84" } },
"features": [
{ "type": "Feature", "properties": { "etape": 1 }, "geometry": { "type": "LineString", "coordinates": [ [ 5.930860801283055, 43.119976335719187 ], [ 5.929266814634325, 43.118052834756867 ], [ 5.929194766926581, 43.11793388083165 ], [ 5.929095033595345, 43.117702827678642 ], [ 5.928982273852609, 43.117431824402708 ], [ 5.928895140127911, 43.117015029249707 ], [ 5.928829983943469, 43.116597636744594 ], [ 5.928751781052133, 43.11592265226259 ], [ 5.928708603003127, 43.115504662648227 ], [ 5.928593790509662, 43.114975768872291 ], [ 5.928419576589302, 43.114577463148457 ], [ 5.928185961289217, 43.114309745059387 ], [ 5.927695131652358, 43.113742705772864 ], [ 5.927130236788382, 43.113016461001514 ], [ 5.920575613181589, 43.103489208133738 ], [ 5.920052411423423, 43.102713442802624 ], [ 5.919857947886017, 43.102347921702545 ], [ 5.919743242400944, 43.101819024280474 ], [ 5.919706668254528, 43.101094552259518 ], [ 5.919845856734193, 43.100365316102817 ], [ 5.920124989744154, 43.099793499951545 ], [ 5.920621376004324, 43.099167428090198 ], [ 5.921241437155501, 43.098376785844451 ], [ 5.921819169663425, 43.097619531159282 ], [ 5.922680045495885, 43.096370949200768 ], [ 5.923682458520287, 43.095311974727785 ], [ 5.92478247499469, 43.09444379647946 ], [ 5.925509841306936, 43.094037128078632 ], [ 5.926412938095091, 43.093625679660676 ], [ 5.927060559807014, 43.093382380915884 ], [ 5.928622654777813, 43.092953000528745 ], [ 5.929665669348194, 43.092698932811757 ], [ 5.930448332073873, 43.092516425021905 ], [ 5.931342456809653, 43.092363120328855 ], [ 5.93206328907422, 43.092262890457256 ], [ 5.933221008891144, 43.092102392987158 ], [ 5.934844110487758, 43.09200980831146 ], [ 5.936241817997373, 43.091810494821573 ], [ 5.937335252045373, 43.091683948207894 ], [ 5.938553120642168, 43.091408902279795 ], [ 5.940698349399774, 43.090769973097764 ], [ 5.94328515886934, 43.089732017772803 ], [ 5.945621405904199, 43.088958795779881 ], [ 5.947947745430357, 43.087992335810377 ], [ 5.951399750642323, 43.086672548681761 ], [ 5.954253044758286, 43.085691504787647 ], [ 5.95735664085272, 43.08444556583639 ], [ 5.960453512672753, 43.083070748195979 ], [ 5.962661837016563, 43.081526833677067 ], [ 5.964056316888269, 43.079553879261923 ], [ 5.964643603782609, 43.077280708370814 ], [ 5.963913236694798, 43.075043820261243 ], [ 5.962743739884438, 43.072819018702837 ], [ 5.960878251491531, 43.070742326106085 ], [ 5.958479325565134, 43.068551299788375 ], [ 5.956678924316135, 43.066021367049096 ], [ 5.954247479725264, 43.063186311745341 ], [ 4.07157250484978, 40.892305732077268 ], [ 4.030843292506074, 40.849005481292046 ], [ 3.973332706764135, 40.810478993286523 ], [ 3.926906219109995, 40.784165486228083 ], [ 3.877846184864758, 40.759911556902345 ], [ 3.809791484044516, 40.727559459347432 ], [ 1.502448829231392, 39.811484357311656 ], [ 1.449758103425096, 39.78913625444919 ], [ 1.399900810493794, 39.7616717051731 ], [ 1.363381171462877, 39.7343978328704 ], [ 1.324575214972004, 39.694753881971614 ], [ 1.24929706397363, 39.63189303275648 ], [ 1.203096094237883, 39.577709511789649 ], [ 1.133822907053446, 39.500508364105045 ], [ 1.08594724058599, 39.421620038291067 ], [ 1.055903626809833, 39.367688097731126 ], [ 1.015618037242477, 39.305343863436249 ], [ 0.416391796989003, 38.543267999071603 ], [ -0.364914617029561, 37.647644461054284 ], [ -0.49768952993163, 37.536664093231089 ], [ -0.64582413344626, 37.433135319693328 ], [ -0.813911883245837, 37.328624650175534 ], [ -0.946756269872102, 37.24160750119885 ], [ -1.109538470499633, 37.149082871991716 ], [ -1.222884251826337, 37.087044623125564 ], [ -1.403486638296878, 36.968740610894301 ], [ -1.579229058933238, 36.862599488105189 ], [ -1.775238729161822, 36.763334135195791 ], [ -1.95169472815036, 36.681010567828999 ], [ -2.164340917513746, 36.612805801510724 ], [ -2.580686947140979, 36.504094054440991 ], [ -2.816844536247582, 36.42899882316425 ], [ -3.142069357518573, 36.339565289589366 ], [ -3.609626232317054, 36.219003035892776 ], [ -3.975317741311374, 36.148466324396409 ], [ -4.406059397857907, 36.079745885119813 ], [ -4.96699950353004, 36.010713763963025 ], [ -5.374001377819359, 35.964085655796033 ], [ -6.025688975838918, 35.905454818550567 ] ] } },
{ "type": "Feature", "properties": { "etape": 2 }, "geometry": { "type": "LineString", "coordinates": [ [ -6.025688975838918, 35.905454818550567 ], [ -6.071351384926338, 35.894681096820243 ], [ -6.114316075562895, 35.883073727131766 ], [ -6.145835982519838, 35.869505233966279 ], [ -6.233957914110554, 35.823298998336696 ], [ -16.107572764474654, 28.470750209647992 ], [ -16.113320324939952, 28.465911697579145 ], [ -16.117577440417364, 28.463907350243925 ], [ -16.120767676560426, 28.463166265304412 ], [ -16.126869667431951, 28.46286478255135 ], [ -16.245872877470987, 28.458553747423597 ] ] } }
]
}
