{
"type": "FeatureCollection",
"name": "t",
"crs": { "type": "name", "properties": { "name": "urn:ogc:def:crs:OGC:1.3:CRS84" } },
"features": [
{ "type": "Feature", "properties": { "etape": 1, "text": null, "taille_m": null }, "geometry": { "type": "LineString", "coordinates": [ [ 5.9308608, 43.1199763 ], [ 5.9292668, 43.1180528 ] ] } },
{ "type": "Feature", "properties": { "etape": 1, "text": null, "taille_m": null }, "geometry": { "type": "LineString", "coordinates": [ [ 5.9292668, 43.1180528 ], [ 5.9291948, 43.1179339 ] ] } },
{ "type": "Feature", "properties": { "etape": 1, "text": null, "taille_m": null }, "geometry": { "type": "LineString", "coordinates": [ [ 5.9291948, 43.1179339 ], [ 5.929095, 43.1177028 ] ] } },
{ "type": "Feature", "properties": { "etape": 1, "text": null, "taille_m": null }, "geometry": { "type": "LineString", "coordinates": [ [ 5.929095, 43.1177028 ], [ 5.9289823, 43.1174318 ] ] } },
{ "type": "Feature", "properties": { "etape": 1, "text": null, "taille_m": null }, "geometry": { "type": "LineString", "coordinates": [ [ 5.9289823, 43.1174318 ], [ 5.9288951, 43.117015 ] ] } },
{ "type": "Feature", "properties": { "etape": 1, "text": null, "taille_m": null }, "geometry": { "type": "LineString", "coordinates": [ [ 5.9288951, 43.117015 ], [ 5.92883, 43.1165976 ] ] } },
{ "type": "Feature", "properties": { "etape": 1, "text": null, "taille_m": null }, "geometry": { "type": "LineString", "coordinates": [ [ 5.92883, 43.1165976 ], [ 5.9287518, 43.1159227 ] ] } },
{ "type": "Feature", "properties": { "etape": 1, "text": null, "taille_m": null }, "geometry": { "type": "LineString", "coordinates": [ [ 5.9287518, 43.1159227 ], [ 5.9287086, 43.1155047 ] ] } },
{ "type": "Feature", "properties": { "etape": 1, "text": null, "taille_m": null }, "geometry": { "type": "LineString", "coordinates": [ [ 5.9205756, 43.1034892 ], [ 5.9200524, 43.1027134 ] ] } },
{ "type": "Feature", "properties": { "etape": 1, "text": null, "taille_m": null }, "geometry": { "type": "LineString", "coordinates": [ [ 5.9200524, 43.1027134 ], [ 5.9198579, 43.1023479 ] ] } },
{ "type": "Feature", "properties": { "etape": 1, "text": null, "taille_m": null }, "geometry": { "type": "LineString", "coordinates": [ [ 5.9198579, 43.1023479 ], [ 5.9197432, 43.101819 ] ] } },
{ "type": "Feature", "properties": { "etape": 1, "text": null, "taille_m": null }, "geometry": { "type": "LineString", "coordinates": [ [ 5.9197432, 43.101819 ], [ 5.9197067, 43.1010946 ] ] } },
{ "type": "Feature", "properties": { "etape": 1, "text": null, "taille_m": null }, "geometry": { "type": "LineString", "coordinates": [ [ 5.9197067, 43.1010946 ], [ 5.9198459, 43.1003653 ] ] } },
{ "type": "Feature", "properties": { "etape": 1, "text": null, "taille_m": null }, "geometry": { "type": "LineString", "coordinates": [ [ 5.9198459, 43.1003653 ], [ 5.920125, 43.0997935 ] ] } },
{ "type": "Feature", "properties": { "etape": 1, "text": null, "taille_m": null }, "geometry": { "type": "LineString", "coordinates": [ [ 5.920125, 43.0997935 ], [ 5.9206214, 43.0991674 ] ] } },
{ "type": "Feature", "properties": { "etape": 1, "text": null, "taille_m": null }, "geometry": { "type": "LineString", "coordinates": [ [ 5.9206214, 43.0991674 ], [ 5.9212414, 43.0983768 ] ] } },
{ "type": "Feature", "properties": { "etape": 1, "text": null, "taille_m": null }, "geometry": { "type": "LineString", "coordinates": [ [ 5.9212414, 43.0983768 ], [ 5.9218192, 43.0976195 ] ] } },
{ "type": "Feature", "properties": { "etape": 1, "text": null, "taille_m": null }, "geometry": { "type": "LineString", "coordinates": [ [ 5.9218192, 43.0976195 ], [ 5.92268, 43.0963709 ] ] } },
{ "type": "Feature", "properties": { "etape": 1, "text": null, "taille_m": null }, "geometry": { "type": "LineString", "coordinates": [ [ 5.92268, 43.0963709 ], [ 5.9236825, 43.095312 ] ] } },
{ "type": "Feature", "properties": { "etape": 1, "text": null, "taille_m": null }, "geometry": { "type": "LineString", "coordinates": [ [ 5.9236825, 43.095312 ], [ 5.9247825, 43.0944438 ] ] } },
{ "type": "Feature", "properties": { "etape": 1, "text": null, "taille_m": null }, "geometry": { "type": "LineString", "coordinates": [ [ 5.9247825, 43.0944438 ], [ 5.9255098, 43.0940371 ] ] } },
{ "type": "Feature", "properties": { "etape": 1, "text": null, "taille_m": null }, "geometry": { "type": "LineString", "coordinates": [ [ 5.9255098, 43.0940371 ], [ 5.9264129, 43.0936257 ] ] } },
{ "type": "Feature", "properties": { "etape": 1, "text": null, "taille_m": null }, "geometry": { "type": "LineString", "coordinates": [ [ 5.9264129, 43.0936257 ], [ 5.9270606, 43.0933824 ] ] } },
{ "type": "Feature", "properties": { "etape": 1, "text": null, "taille_m": null }, "geometry": { "type": "LineString", "coordinates": [ [ 5.9270606, 43.0933824 ], [ 5.9286227, 43.092953 ] ] } },
{ "type": "Feature", "properties": { "etape": 1, "text": null, "taille_m": null }, "geometry": { "type": "LineString", "coordinates": [ [ 5.9286227, 43.092953 ], [ 5.9296657, 43.0926989 ] ] } },
{ "type": "Feature", "properties": { "etape": 1, "text": null, "taille_m": null }, "geometry": { "type": "LineString", "coordinates": [ [ 5.9296657, 43.0926989 ], [ 5.9304483, 43.0925164 ] ] } },
{ "type": "Feature", "properties": { "etape": 1, "text": null, "taille_m": null }, "geometry": { "type": "LineString", "coordinates": [ [ 5.9304483, 43.0925164 ], [ 5.9313425, 43.0923631 ] ] } },
{ "type": "Feature", "properties": { "etape": 1, "text": null, "taille_m": null }, "geometry": { "type": "LineString", "coordinates": [ [ 5.9313425, 43.0923631 ], [ 5.9320633, 43.0922629 ] ] } },
{ "type": "Feature", "properties": { "etape": 1, "text": null, "taille_m": null }, "geometry": { "type": "LineString", "coordinates": [ [ 5.9320633, 43.0922629 ], [ 5.933221, 43.0921024 ] ] } },
{ "type": "Feature", "properties": { "etape": 1, "text": null, "taille_m": null }, "geometry": { "type": "LineString", "coordinates": [ [ 5.933221, 43.0921024 ], [ 5.9348441, 43.0920098 ] ] } },
{ "type": "Feature", "properties": { "etape": 1, "text": null, "taille_m": null }, "geometry": { "type": "LineString", "coordinates": [ [ 5.9348441, 43.0920098 ], [ 5.9362418, 43.0918105 ] ] } },
{ "type": "Feature", "properties": { "etape": 1, "text": null, "taille_m": null }, "geometry": { "type": "LineString", "coordinates": [ [ 5.9362418, 43.0918105 ], [ 5.9373353, 43.0916839 ] ] } },
{ "type": "Feature", "properties": { "etape": 1, "text": null, "taille_m": null }, "geometry": { "type": "LineString", "coordinates": [ [ 5.9373353, 43.0916839 ], [ 5.9385531, 43.0914089 ] ] } },
{ "type": "Feature", "properties": { "etape": 1, "text": null, "taille_m": null }, "geometry": { "type": "LineString", "coordinates": [ [ 5.9385531, 43.0914089 ], [ 5.9406983, 43.09077 ] ] } },
{ "type": "Feature", "properties": { "etape": 1, "text": null, "taille_m": null }, "geometry": { "type": "LineString", "coordinates": [ [ 5.9406983, 43.09077 ], [ 5.9432852, 43.089732 ] ] } },
{ "type": "Feature", "properties": { "etape": 1, "text": null, "taille_m": null }, "geometry": { "type": "LineString", "coordinates": [ [ 5.9432852, 43.089732 ], [ 5.9456214, 43.0889588 ] ] } },
{ "type": "Feature", "properties": { "etape": 1, "text": null, "taille_m": null }, "geometry": { "type": "LineString", "coordinates": [ [ 5.9456214, 43.0889588 ], [ 5.9479477, 43.0879923 ] ] } },
{ "type": "Feature", "properties": { "etape": 1, "text": null, "taille_m": null }, "geometry": { "type": "LineString", "coordinates": [ [ 5.9479477, 43.0879923 ], [ 5.9513998, 43.0866725 ] ] } },
{ "type": "Feature", "properties": { "etape": 1, "text": null, "taille_m": null }, "geometry": { "type": "LineString", "coordinates": [ [ 5.9584793, 43.0685513 ], [ 5.9566789, 43.0660214 ] ] } },
{ "type": "Feature", "properties": { "etape": 1, "text": null, "taille_m": null }, "geometry": { "type": "LineString", "coordinates": [ [ 5.9566789, 43.0660214 ], [ 5.9542475, 43.0631863 ] ] } },
{ "type": "Feature", "properties": { "etape": 1, "text": null, "taille_m": null }, "geometry": { "type": "LineString", "coordinates": [ [ 5.9542475, 43.0631863 ], [ 4.0715725, 40.8923057 ] ] } },
{ "type": "Feature", "properties": { "etape": 1, "text": null, "taille_m": null }, "geometry": { "type": "LineString", "coordinates": [ [ 4.0715725, 40.8923057 ], [ 4.0308433, 40.8490055 ] ] } },
{ "type": "Feature", "properties": { "etape": 1, "text": null, "taille_m": null }, "geometry": { "type": "LineString", "coordinates": [ [ 4.0308433, 40.8490055 ], [ 3.9733327, 40.810479 ] ] } },
{ "type": "Feature", "properties": { "etape": 1, "text": null, "taille_m": null }, "geometry": { "type": "LineString", "coordinates": [ [ 3.9733327, 40.810479 ], [ 3.9269062, 40.7841655 ] ] } },
{ "type": "Feature", "properties": { "etape": 1, "text": null, "taille_m": null }, "geometry": { "type": "LineString", "coordinates": [ [ 3.9269062, 40.7841655 ], [ 3.8778462, 40.7599116 ] ] } },
{ "type": "Feature", "properties": { "etape": 1, "text": null, "taille_m": null }, "geometry": { "type": "LineString", "coordinates": [ [ 3.8778462, 40.7599116 ], [ 3.8097915, 40.7275595 ] ] } },
{ "type": "Feature", "properties": { "etape": 1, "text": "Les aventures, forge l'amitié", "taille_m": 10000 }, "geometry": { "type": "LineString", "coordinates": [ [ 3.8097915, 40.7275595 ], [ 1.5024488, 39.8114844 ] ] } },
{ "type": "Feature", "properties": { "etape": 1, "text": null, "taille_m": null }, "geometry": { "type": "LineString", "coordinates": [ [ 1.5024488, 39.8114844 ], [ 1.4497581, 39.7891363 ] ] } },
{ "type": "Feature", "properties": { "etape": 1, "text": null, "taille_m": null }, "geometry": { "type": "LineString", "coordinates": [ [ 1.4497581, 39.7891363 ], [ 1.3999008, 39.7616717 ] ] } },
{ "type": "Feature", "properties": { "etape": 1, "text": null, "taille_m": null }, "geometry": { "type": "LineString", "coordinates": [ [ 1.3999008, 39.7616717 ], [ 1.3633812, 39.7343978 ] ] } },
{ "type": "Feature", "properties": { "etape": 1, "text": null, "taille_m": null }, "geometry": { "type": "LineString", "coordinates": [ [ 1.3633812, 39.7343978 ], [ 1.3245752, 39.6947539 ] ] } },
{ "type": "Feature", "properties": { "etape": 1, "text": null, "taille_m": null }, "geometry": { "type": "LineString", "coordinates": [ [ 1.3245752, 39.6947539 ], [ 1.2492971, 39.631893 ] ] } },
{ "type": "Feature", "properties": { "etape": 1, "text": null, "taille_m": null }, "geometry": { "type": "LineString", "coordinates": [ [ 1.2492971, 39.631893 ], [ 1.2030961, 39.5777095 ] ] } },
{ "type": "Feature", "properties": { "etape": 1, "text": null, "taille_m": null }, "geometry": { "type": "LineString", "coordinates": [ [ 1.2030961, 39.5777095 ], [ 1.1338229, 39.5005084 ] ] } },
{ "type": "Feature", "properties": { "etape": 1, "text": null, "taille_m": null }, "geometry": { "type": "LineString", "coordinates": [ [ 1.1338229, 39.5005084 ], [ 1.0859472, 39.42162 ] ] } },
{ "type": "Feature", "properties": { "etape": 1, "text": null, "taille_m": null }, "geometry": { "type": "LineString", "coordinates": [ [ 1.0859472, 39.42162 ], [ 1.0559036, 39.3676881 ] ] } },
{ "type": "Feature", "properties": { "etape": 1, "text": null, "taille_m": null }, "geometry": { "type": "LineString", "coordinates": [ [ 1.0559036, 39.3676881 ], [ 1.015618, 39.3053439 ] ] } },
{ "type": "Feature", "properties": { "etape": 1, "text": null, "taille_m": null }, "geometry": { "type": "LineString", "coordinates": [ [ 1.015618, 39.3053439 ], [ 0.4163918, 38.543268 ] ] } },
{ "type": "Feature", "properties": { "etape": 1, "text": null, "taille_m": null }, "geometry": { "type": "LineString", "coordinates": [ [ 0.4163918, 38.543268 ], [ -0.3649146, 37.6476445 ] ] } },
{ "type": "Feature", "properties": { "etape": 1, "text": null, "taille_m": null }, "geometry": { "type": "LineString", "coordinates": [ [ -0.3649146, 37.6476445 ], [ -0.4976895, 37.5366641 ] ] } },
{ "type": "Feature", "properties": { "etape": 1, "text": null, "taille_m": null }, "geometry": { "type": "LineString", "coordinates": [ [ -0.4976895, 37.5366641 ], [ -0.6458241, 37.4331353 ] ] } },
{ "type": "Feature", "properties": { "etape": 1, "text": null, "taille_m": null }, "geometry": { "type": "LineString", "coordinates": [ [ -0.6458241, 37.4331353 ], [ -0.8139119, 37.3286247 ] ] } },
{ "type": "Feature", "properties": { "etape": 1, "text": null, "taille_m": null }, "geometry": { "type": "LineString", "coordinates": [ [ -0.8139119, 37.3286247 ], [ -0.9467563, 37.2416075 ] ] } },
{ "type": "Feature", "properties": { "etape": 1, "text": null, "taille_m": null }, "geometry": { "type": "LineString", "coordinates": [ [ -0.9467563, 37.2416075 ], [ -1.1095385, 37.1490829 ] ] } },
{ "type": "Feature", "properties": { "etape": 1, "text": null, "taille_m": null }, "geometry": { "type": "LineString", "coordinates": [ [ -1.1095385, 37.1490829 ], [ -1.2228843, 37.0870446 ] ] } },
{ "type": "Feature", "properties": { "etape": 1, "text": null, "taille_m": null }, "geometry": { "type": "LineString", "coordinates": [ [ -1.2228843, 37.0870446 ], [ -1.4034866, 36.9687406 ] ] } },
{ "type": "Feature", "properties": { "etape": 1, "text": null, "taille_m": null }, "geometry": { "type": "LineString", "coordinates": [ [ -1.4034866, 36.9687406 ], [ -1.5792291, 36.8625995 ] ] } },
{ "type": "Feature", "properties": { "etape": 1, "text": null, "taille_m": null }, "geometry": { "type": "LineString", "coordinates": [ [ -1.5792291, 36.8625995 ], [ -1.7752387, 36.7633341 ] ] } },
{ "type": "Feature", "properties": { "etape": 1, "text": null, "taille_m": null }, "geometry": { "type": "LineString", "coordinates": [ [ -1.7752387, 36.7633341 ], [ -1.9516947, 36.6810106 ] ] } },
{ "type": "Feature", "properties": { "etape": 1, "text": null, "taille_m": null }, "geometry": { "type": "LineString", "coordinates": [ [ -1.9516947, 36.6810106 ], [ -2.1643409, 36.6128058 ] ] } },
{ "type": "Feature", "properties": { "etape": 1, "text": null, "taille_m": null }, "geometry": { "type": "LineString", "coordinates": [ [ -2.1643409, 36.6128058 ], [ -2.5806869, 36.5040941 ] ] } },
{ "type": "Feature", "properties": { "etape": 1, "text": null, "taille_m": null }, "geometry": { "type": "LineString", "coordinates": [ [ -2.5806869, 36.5040941 ], [ -2.8168445, 36.4289988 ] ] } },
{ "type": "Feature", "properties": { "etape": 1, "text": null, "taille_m": null }, "geometry": { "type": "LineString", "coordinates": [ [ -2.8168445, 36.4289988 ], [ -3.1420694, 36.3395653 ] ] } },
{ "type": "Feature", "properties": { "etape": 1, "text": null, "taille_m": null }, "geometry": { "type": "LineString", "coordinates": [ [ -3.1420694, 36.3395653 ], [ -3.6096262, 36.219003 ] ] } },
{ "type": "Feature", "properties": { "etape": 1, "text": null, "taille_m": null }, "geometry": { "type": "LineString", "coordinates": [ [ -3.6096262, 36.219003 ], [ -3.9753177, 36.1484663 ] ] } },
{ "type": "Feature", "properties": { "etape": 1, "text": null, "taille_m": null }, "geometry": { "type": "LineString", "coordinates": [ [ -3.9753177, 36.1484663 ], [ -4.4060594, 36.0797459 ] ] } },
{ "type": "Feature", "properties": { "etape": 1, "text": null, "taille_m": null }, "geometry": { "type": "LineString", "coordinates": [ [ -4.4060594, 36.0797459 ], [ -4.9669995, 36.0107138 ] ] } },
{ "type": "Feature", "properties": { "etape": 1, "text": null, "taille_m": null }, "geometry": { "type": "LineString", "coordinates": [ [ -4.9669995, 36.0107138 ], [ -5.3740014, 35.9640857 ] ] } },
{ "type": "Feature", "properties": { "etape": 1, "text": null, "taille_m": null }, "geometry": { "type": "LineString", "coordinates": [ [ -5.3740014, 35.9640857 ], [ -6.025689, 35.9054548 ] ] } },
{ "type": "Feature", "properties": { "etape": 1, "text": "Exploration", "taille_m": 200 }, "geometry": { "type": "LineString", "coordinates": [ [ 5.9287086, 43.1155047 ], [ 5.9285938, 43.1149758 ], [ 5.9284196, 43.1145775 ], [ 5.928186, 43.1143097 ], [ 5.9276951, 43.1137427 ], [ 5.9271302, 43.1130165 ], [ 5.9205756, 43.1034892 ] ] } },
{ "type": "Feature", "properties": { "etape": 1, "text": "Maritime", "taille_m": 400 }, "geometry": { "type": "LineString", "coordinates": [ [ 5.9513998, 43.0866725 ], [ 5.954253, 43.0856915 ], [ 5.9573566, 43.0844456 ], [ 5.9604535, 43.0830707 ], [ 5.9626618, 43.0815268 ], [ 5.9640563, 43.0795539 ], [ 5.9646436, 43.0772807 ], [ 5.9639132, 43.0750438 ], [ 5.9627437, 43.072819 ], [ 5.9608783, 43.0707423 ], [ 5.9584793, 43.0685513 ] ] } }
]
}
